[{"OBJECT_NAME":"USA 157 (MILSTAR-2 2)","OBJECT_ID":"2001-009A","EPOCH":"2026-04-25T11:12:38.646144","MEAN_MOTION":1.00276262,"ECCENTRICITY":0.00376095,"INCLINATION":11.4868,"RA_OF_ASC_NODE":20.0926,"ARG_OF_PERICENTER":181.3724,"MEAN_ANOMALY":30.1496,"EPHEMERIS_TYPE":0,"CLASSIFICATION_TYPE":"U","NORAD_CAT_ID":26715,"ELEMENT_SET_NO":999,"REV_AT_EPOCH":3241,"BSTAR":0,"MEAN_MOTION_DOT":9.9e-7,"MEAN_MOTION_DDOT":0},{"OBJECT_NAME":"USA 159 (DSP 21)","OBJECT_ID":"2001-033A","EPOCH":"2026-04-25T22:07:12.923904","MEAN_MOTION":0.99198576,"ECCENTRICITY":1.842e-5,"INCLINATION":12.7341,"RA_OF_ASC_NODE":16.7947,"ARG_OF_PERICENTER":39.5771,"MEAN_ANOMALY":240.2365,"EPHEMERIS_TYPE":0,"CLASSIFICATION_TYPE":"U","NORAD_CAT_ID":26880,"ELEMENT_SET_NO":999,"REV_AT_EPOCH":3243,"BSTAR":0,"MEAN_MOTION_DOT":-2.06e-6,"MEAN_MOTION_DDOT":0},{"OBJECT_NAME":"INTELSAT 902 (IS-902)","OBJECT_ID":"2001-039A","EPOCH":"2026-04-25T20:12:55.804320","MEAN_MOTION":1.00271152,"ECCENTRICITY":0.00045232,"INCLINATION":5.9865,"RA_OF_ASC_NODE":72.4073,"ARG_OF_PERICENTER":319.1985,"MEAN_ANOMALY":75.3869,"EPHEMERIS_TYPE":0,"CLASSIFICATION_TYPE":"U","NORAD_CAT_ID":26900,"ELEMENT_SET_NO":999,"REV_AT_EPOCH":9017,"BSTAR":0,"MEAN_MOTION_DOT":-2.92e-6,"MEAN_MOTION_DDOT":0},{"OBJECT_NAME":"USA 164 (MILSTAR-2 3)","OBJECT_ID":"2002-001A","EPOCH":"2026-04-25T22:09:00.362304","MEAN_MOTION":1.00267493,"ECCENTRICITY":0.00997611,"INCLINATION":11.1193,"RA_OF_ASC_NODE":22.225,"ARG_OF_PERICENTER":6.4025,"MEAN_ANOMALY":176.5312,"EPHEMERIS_TYPE":0,"CLASSIFICATION_TYPE":"U","NORAD_CAT_ID":27168,"ELEMENT_SET_NO":999,"REV_AT_EPOCH":3243,"BSTAR":0,"MEAN_MOTION_DOT":8.6e-7,"MEAN_MOTION_DDOT":0},{"OBJECT_NAME":"INTELSAT 904 (IS-904)","OBJECT_ID":"2002-007A","EPOCH":"2026-04-25T16:52:57.783648","MEAN_MOTION":1.00269882,"ECCENTRICITY":0.0007682,"INCLINATION":6.7919,"RA_OF_ASC_NODE":69.8016,"ARG_OF_PERICENTER":338.1492,"MEAN_ANOMALY":27.512,"EPHEMERIS_TYPE":0,"CLASSIFICATION_TYPE":"U","NORAD_CAT_ID":27380,"ELEMENT_SET_NO":999,"REV_AT_EPOCH":5124,"BSTAR":0,"MEAN_MOTION_DOT":-2.35e-6,"MEAN_MOTION_DDOT":0},{"OBJECT_NAME":"DIRECTV 5 (TEMPO 1)","OBJECT_ID":"2002-023A","EPOCH":"2026-04-25T21:38:32.593632","MEAN_MOTION":1.00271768,"ECCENTRICITY":0.00034327,"INCLINATION":4.7467,"RA_OF_ASC_NODE":75.9436,"ARG_OF_PERICENTER":320.3175,"MEAN_ANOMALY":32.1782,"EPHEMERIS_TYPE":0,"CLASSIFICATION_TYPE":"U","NORAD_CAT_ID":27426,"ELEMENT_SET_NO":999,"REV_AT_EPOCH":8759,"BSTAR":0,"MEAN_MOTION_DOT":-6.7e-7,"MEAN_MOTION_DDOT":0},{"OBJECT_NAME":"INTELSAT 905 (IS-905)","OBJECT_ID":"2002-027A","EPOCH":"2026-04-25T14:43:42.487680","MEAN_MOTION":1.00273059,"ECCENTRICITY":0.00033772,"INCLINATION":6.6244,"RA_OF_ASC_NODE":70.4202,"ARG_OF_PERICENTER":337.2769,"MEAN_ANOMALY":249.6576,"EPHEMERIS_TYPE":0,"CLASSIFICATION_TYPE":"U","NORAD_CAT_ID":27438,"ELEMENT_SET_NO":999,"REV_AT_EPOCH":5083,"BSTAR":0,"MEAN_MOTION_DOT":8.4e-7,"MEAN_MOTION_DDOT":0},{"OBJECT_NAME":"GALAXY 3C (G-3C)","OBJECT_ID":"2002-030A","EPOCH":"2026-04-25T21:42:54.675072","MEAN_MOTION":1.00271485,"ECCENTRICITY":0.00015044,"INCLINATION":3.5969,"RA_OF_ASC_NODE":78.6733,"ARG_OF_PERICENTER":25.2579,"MEAN_ANOMALY":340.8439,"EPHEMERIS_TYPE":0,"CLASSIFICATION_TYPE":"U","NORAD_CAT_ID":27445,"ELEMENT_SET_NO":999,"REV_AT_EPOCH":4597,"BSTAR":0,"MEAN_MOTION_DOT":-1.63e-6,"MEAN_MOTION_DDOT":0},{"OBJECT_NAME":"INTELSAT 906 (IS-906)","OBJECT_ID":"2002-041A","EPOCH":"2026-04-25T23:30:38.663424","MEAN_MOTION":1.00270477,"ECCENTRICITY":0.00040266,"INCLINATION":5.6715,"RA_OF_ASC_NODE":73.5477,"ARG_OF_PERICENTER":334.9355,"MEAN_ANOMALY":222.3282,"EPHEMERIS_TYPE":0,"CLASSIFICATION_TYPE":"U","NORAD_CAT_ID":27513,"ELEMENT_SET_NO":999,"REV_AT_EPOCH":8650,"BSTAR":0,"MEAN_MOTION_DOT":4.0e-8,"MEAN_MOTION_DDOT":0},{"OBJECT_NAME":"NIMIQ 2","OBJECT_ID":"2002-062A","EPOCH":"2026-04-25T21:38:32.593632","MEAN_MOTION":1.0027232,"ECCENTRICITY":0.000632,"INCLINATION":9.3288,"RA_OF_ASC_NODE":57.4432,"ARG_OF_PERICENTER":333.7121,"MEAN_ANOMALY":38.2272,"EPHEMERIS_TYPE":0,"CLASSIFICATION_TYPE":"U","NORAD_CAT_ID":27632,"ELEMENT_SET_NO":999,"REV_AT_EPOCH":4366,"BSTAR":0,"MEAN_MOTION_DOT":-7.8e-7,"MEAN_MOTION_DDOT":0},{"OBJECT_NAME":"USA 167","OBJECT_ID":"2003-008A","EPOCH":"2026-04-25T21:35:02.929344","MEAN_MOTION":1.00273641,"ECCENTRICITY":0.00050836,"INCLINATION":10.8609,"RA_OF_ASC_NODE":43.8726,"ARG_OF_PERICENTER":306.1264,"MEAN_ANOMALY":65.4802,"EPHEMERIS_TYPE":0,"CLASSIFICATION_TYPE":"U","NORAD_CAT_ID":27691,"ELEMENT_SET_NO":999,"REV_AT_EPOCH":625,"BSTAR":0,"MEAN_MOTION_DOT":-3.0e-8,"MEAN_MOTION_DDOT":0},{"OBJECT_NAME":"USA 169 (MILSTAR-2 4)","OBJECT_ID":"2003-012A","EPOCH":"2026-04-25T15:25:17.105376","MEAN_MOTION":1.00272751,"ECCENTRICITY":0.01018551,"INCLINATION":12.2726,"RA_OF_ASC_NODE":30.2671,"ARG_OF_PERICENTER":6.36,"MEAN_ANOMALY":200.4917,"EPHEMERIS_TYPE":0,"CLASSIFICATION_TYPE":"U","NORAD_CAT_ID":27711,"ELEMENT_SET_NO":999,"REV_AT_EPOCH":3242,"BSTAR":0,"MEAN_MOTION_DOT":-2.69e-6,"MEAN_MOTION_DDOT":0},{"OBJECT_NAME":"ASIASAT 4","OBJECT_ID":"2003-014A","EPOCH":"2026-04-25T18:45:38.694240","MEAN_MOTION":1.00271016,"ECCENTRICITY":0.00027969,"INCLINATION":4.5715,"RA_OF_ASC_NODE":76.3864,"ARG_OF_PERICENTER":327.122,"MEAN_ANOMALY":239.254,"EPHEMERIS_TYPE":0,"CLASSIFICATION_TYPE":"U","NORAD_CAT_ID":27718,"ELEMENT_SET_NO":999,"REV_AT_EPOCH":4477,"BSTAR":0,"MEAN_MOTION_DOT":-2.32e-6,"MEAN_MOTION_DDOT":0},{"OBJECT_NAME":"HELLAS-SAT 2","OBJECT_ID":"2003-020A","EPOCH":"2026-04-25T15:16:26.972256","MEAN_MOTION":1.00271782,"ECCENTRICITY":0.00044918,"INCLINATION":7.2269,"RA_OF_ASC_NODE":68.5003,"ARG_OF_PERICENTER":289.9378,"MEAN_ANOMALY":74.3282,"EPHEMERIS_TYPE":0,"CLASSIFICATION_TYPE":"U","NORAD_CAT_ID":27811,"ELEMENT_SET_NO":999,"REV_AT_EPOCH":4232,"BSTAR":0,"MEAN_MOTION_DOT":-9.3e-7,"MEAN_MOTION_DDOT":0},{"OBJECT_NAME":"THURAYA-2","OBJECT_ID":"2003-026A","EPOCH":"2026-04-25T22:22:28.380288","MEAN_MOTION":1.00272775,"ECCENTRICITY":0.00035291,"INCLINATION":8.7619,"RA_OF_ASC_NODE":32.1881,"ARG_OF_PERICENTER":343.3586,"MEAN_ANOMALY":218.0165,"EPHEMERIS_TYPE":0,"CLASSIFICATION_TYPE":"U","NORAD_CAT_ID":27825,"ELEMENT_SET_NO":999,"REV_AT_EPOCH":8382,"BSTAR":0,"MEAN_MOTION_DOT":1.15e-6,"MEAN_MOTION_DDOT":0},{"OBJECT_NAME":"OPTUS C1","OBJECT_ID":"2003-028B","EPOCH":"2026-04-25T16:27:38.762784","MEAN_MOTION":1.00270157,"ECCENTRICITY":0.00061285,"INCLINATION":6.7613,"RA_OF_ASC_NODE":70.0327,"ARG_OF_PERICENTER":323.3933,"MEAN_ANOMALY":222.8953,"EPHEMERIS_TYPE":0,"CLASSIFICATION_TYPE":"U","NORAD_CAT_ID":27831,"ELEMENT_SET_NO":999,"REV_AT_EPOCH":5253,"BSTAR":0,"MEAN_MOTION_DOT":-1.61e-6,"MEAN_MOTION_DDOT":0},{"OBJECT_NAME":"USA 170","OBJECT_ID":"2003-040A","EPOCH":"2026-04-25T22:09:14.067072","MEAN_MOTION":1.00268275,"ECCENTRICITY":0.00019683,"INCLINATION":10.3929,"RA_OF_ASC_NODE":48.4372,"ARG_OF_PERICENTER":357.0001,"MEAN_ANOMALY":165.0227,"EPHEMERIS_TYPE":0,"CLASSIFICATION_TYPE":"U","NORAD_CAT_ID":27875,"ELEMENT_SET_NO":999,"REV_AT_EPOCH":3247,"BSTAR":0,"MEAN_MOTION_DOT":1.17e-6,"MEAN_MOTION_DDOT":0},{"OBJECT_NAME":"GALAXY 13 (HORIZONS-1)","OBJECT_ID":"2003-044A","EPOCH":"2026-04-25T17:19:38.652096","MEAN_MOTION":1.00272991,"ECCENTRICITY":0.00022105,"INCLINATION":1.2837,"RA_OF_ASC_NODE":84.4796,"ARG_OF_PERICENTER":312.8777,"MEAN_ANOMALY":286.2841,"EPHEMERIS_TYPE":0,"CLASSIFICATION_TYPE":"U","NORAD_CAT_ID":27954,"ELEMENT_SET_NO":999,"REV_AT_EPOCH":4604,"BSTAR":0,"MEAN_MOTION_DOT":1.2e-6,"MEAN_MOTION_DDOT":0},{"OBJECT_NAME":"YAMAL 202","OBJECT_ID":"2003-053A","EPOCH":"2026-04-25T18:46:31.518336","MEAN_MOTION":1.00271113,"ECCENTRICITY":0.00039153,"INCLINATION":6.212,"RA_OF_ASC_NODE":71.5599,"ARG_OF_PERICENTER":295.7688,"MEAN_ANOMALY":291.6578,"EPHEMERIS_TYPE":0,"CLASSIFICATION_TYPE":"U","NORAD_CAT_ID":28089,"ELEMENT_SET_NO":999,"REV_AT_EPOCH":8217,"BSTAR":0,"MEAN_MOTION_DOT":-9.0e-7,"MEAN_MOTION_DDOT":0},{"OBJECT_NAME":"UFO 11 (USA 174)","OBJECT_ID":"2003-057A","EPOCH":"2026-04-25T22:10:15.487104","MEAN_MOTION":1.00272089,"ECCENTRICITY":0.0002743,"INCLINATION":8.9328,"RA_OF_ASC_NODE":34.083,"ARG_OF_PERICENTER":346.6505,"MEAN_ANOMALY":241.1938,"EPHEMERIS_TYPE":0,"CLASSIFICATION_TYPE":"U","NORAD_CAT_ID":28117,"ELEMENT_SET_NO":999,"REV_AT_EPOCH":8192,"BSTAR":0,"MEAN_MOTION_DOT":-1.13e-6,"MEAN_MOTION_DDOT":0},{"OBJECT_NAME":"USA 176 (DSP 22)","OBJECT_ID":"2004-004A","EPOCH":"2026-04-25T08:25:50.267136","MEAN_MOTION":1.00424401,"ECCENTRICITY":0.00021018,"INCLINATION":11.9932,"RA_OF_ASC_NODE":26.4617,"ARG_OF_PERICENTER":299.246,"MEAN_ANOMALY":299.7336,"EPHEMERIS_TYPE":0,"CLASSIFICATION_TYPE":"U","NORAD_CAT_ID":28158,"ELEMENT_SET_NO":999,"REV_AT_EPOCH":3240,"BSTAR":0,"MEAN_MOTION_DOT":-2.88e-6,"MEAN_MOTION_DDOT":0},{"OBJECT_NAME":"ABS-4 (MOBISAT-1)","OBJECT_ID":"2004-007A","EPOCH":"2026-04-25T23:27:15.645024","MEAN_MOTION":1.00272691,"ECCENTRICITY":0.00054466,"INCLINATION":5.9109,"RA_OF_ASC_NODE":72.6284,"ARG_OF_PERICENTER":325.0057,"MEAN_ANOMALY":229.1353,"EPHEMERIS_TYPE":0,"CLASSIFICATION_TYPE":"U","NORAD_CAT_ID":28184,"ELEMENT_SET_NO":999,"REV_AT_EPOCH":5181,"BSTAR":0,"MEAN_MOTION_DOT":3.0e-7,"MEAN_MOTION_DDOT":0},{"OBJECT_NAME":"AMC-11","OBJECT_ID":"2004-017A","EPOCH":"2026-04-22T13:35:15.228672","MEAN_MOTION":0.99197073,"ECCENTRICITY":0.00050451,"INCLINATION":0.1665,"RA_OF_ASC_NODE":82.5408,"ARG_OF_PERICENTER":326.8232,"MEAN_ANOMALY":237.064,"EPHEMERIS_TYPE":0,"CLASSIFICATION_TYPE":"U","NORAD_CAT_ID":28252,"ELEMENT_SET_NO":999,"REV_AT_EPOCH":8030,"BSTAR":0,"MEAN_MOTION_DOT":7.7e-7,"MEAN_MOTION_DDOT":0},{"OBJECT_NAME":"INTELSAT 10-02","OBJECT_ID":"2004-022A","EPOCH":"2026-04-25T20:16:38.659296","MEAN_MOTION":1.00267814,"ECCENTRICITY":0.00013124,"INCLINATION":0.0161,"RA_OF_ASC_NODE":79.7429,"ARG_OF_PERICENTER":344.1658,"MEAN_ANOMALY":93.0742,"EPHEMERIS_TYPE":0,"CLASSIFICATION_TYPE":"U","NORAD_CAT_ID":28358,"ELEMENT_SET_NO":999,"REV_AT_EPOCH":8003,"BSTAR":0,"MEAN_MOTION_DOT":0,"MEAN_MOTION_DDOT":0}]
